STARLETTE               
1 07646U 75010A   26062.11051129 -.00000148  00000+0 -21038-5 0  9995
2 07646  49.8226 163.3003 0205549  72.6087 289.7169 13.82349035579862
LAGEOS 1                
1 08820U 76039A   26061.43709549 -.00000003  00000+0  00000+0 0  9991
2 08820 109.8189 142.7985 0044658 325.1413  36.9970  6.38664864906323
AJISAI (EGS)            
1 16908U 86061A   26062.20537602 -.00000076  00000+0  14799-3 0  9992
2 16908  50.0080 113.2876 0011249 270.2960 135.4771 12.44515527467191
COSMOS 1989 (ETALON 1)  
1 19751U 89001C   26062.16149487  .00000023  00000+0  00000+0 0  9990
2 19751  64.8833  75.8204 0023402 217.5748 107.6188  2.13156023289102
COSMOS 2024 (ETALON 2)  
1 20026U 89039C   26061.32266899 -.00000040  00000+0  00000+0 0  9992
2 20026  64.9989 314.2194 0020465 213.4282 327.1605  2.13204503286224
LAGEOS 2                
1 22195U 92070B   26061.17392850 -.00000009  00000+0  00000+0 0  9995
2 22195  52.6801 334.2909 0137783 140.5395  13.7441  6.47293311788491
STELLA                  
1 22824U 93061B   26062.13465330 -.00000033  00000+0  47423-5 0  9999
2 22824  98.7855 125.9481 0006382 176.0816 217.2299 14.27467234689645
LARETS                  
1 27944U 03042F   26062.16824111  .00000089  00000+0  26723-4 0  9995
2 27944  98.4003 222.2213 0012485  12.8402 347.3115 14.63846440197857
LARES                   
1 38077U 12006A   26062.12813177 -.00000041  00000+0 -13309-4 0  9996
2 38077  69.4884 113.4077 0007606 157.3554 202.7810 12.54932157643763
LARES-2                 
1 53105U 22080A   26051.71998157 -.00000019  00000+0  00000+0 0  9996
2 53105  70.1780 345.2672 0005158   0.9590 359.1035  6.38965205 84226
