[{"OBJECT_NAME":"STARLETTE","OBJECT_ID":"1975-010A","EPOCH":"2026-03-03T02:39:08.175456","MEAN_MOTION":13.82349035,"ECCENTRICITY":0.0205549,"INCLINATION":49.8226,"RA_OF_ASC_NODE":163.3003,"ARG_OF_PERICENTER":72.6087,"MEAN_ANOMALY":289.7169,"EPHEMERIS_TYPE":0,"CLASSIFICATION_TYPE":"U","NORAD_CAT_ID":7646,"ELEMENT_SET_NO":999,"REV_AT_EPOCH":57986,"BSTAR":-2.1038e-6,"MEAN_MOTION_DOT":-1.48e-6,"MEAN_MOTION_DDOT":0},{"OBJECT_NAME":"LAGEOS 1","OBJECT_ID":"1976-039A","EPOCH":"2026-03-02T10:29:25.050336","MEAN_MOTION":6.38664864,"ECCENTRICITY":0.00446587,"INCLINATION":109.8189,"RA_OF_ASC_NODE":142.7985,"ARG_OF_PERICENTER":325.1413,"MEAN_ANOMALY":36.997,"EPHEMERIS_TYPE":0,"CLASSIFICATION_TYPE":"U","NORAD_CAT_ID":8820,"ELEMENT_SET_NO":999,"REV_AT_EPOCH":90632,"BSTAR":0,"MEAN_MOTION_DOT":-3.0e-8,"MEAN_MOTION_DDOT":0},{"OBJECT_NAME":"AJISAI (EGS)","OBJECT_ID":"1986-061A","EPOCH":"2026-03-03T04:55:44.488128","MEAN_MOTION":12.44515527,"ECCENTRICITY":0.0011249,"INCLINATION":50.008,"RA_OF_ASC_NODE":113.2876,"ARG_OF_PERICENTER":270.296,"MEAN_ANOMALY":135.4771,"EPHEMERIS_TYPE":0,"CLASSIFICATION_TYPE":"U","NORAD_CAT_ID":16908,"ELEMENT_SET_NO":999,"REV_AT_EPOCH":46719,"BSTAR":0.00014799,"MEAN_MOTION_DOT":-7.6e-7,"MEAN_MOTION_DDOT":0},{"OBJECT_NAME":"COSMOS 1989 (ETALON 1)","OBJECT_ID":"1989-001C","EPOCH":"2026-03-03T03:52:33.156768","MEAN_MOTION":2.13156023,"ECCENTRICITY":0.0023402,"INCLINATION":64.8833,"RA_OF_ASC_NODE":75.8204,"ARG_OF_PERICENTER":217.5748,"MEAN_ANOMALY":107.6188,"EPHEMERIS_TYPE":0,"CLASSIFICATION_TYPE":"U","NORAD_CAT_ID":19751,"ELEMENT_SET_NO":999,"REV_AT_EPOCH":28910,"BSTAR":0,"MEAN_MOTION_DOT":2.3e-7,"MEAN_MOTION_DDOT":0},{"OBJECT_NAME":"COSMOS 2024 (ETALON 2)","OBJECT_ID":"1989-039C","EPOCH":"2026-03-02T07:44:38.600736","MEAN_MOTION":2.13204503,"ECCENTRICITY":0.00204655,"INCLINATION":64.9989,"RA_OF_ASC_NODE":314.2194,"ARG_OF_PERICENTER":213.4282,"MEAN_ANOMALY":327.1605,"EPHEMERIS_TYPE":0,"CLASSIFICATION_TYPE":"U","NORAD_CAT_ID":20026,"ELEMENT_SET_NO":999,"REV_AT_EPOCH":28622,"BSTAR":0,"MEAN_MOTION_DOT":-4.0e-7,"MEAN_MOTION_DDOT":0},{"OBJECT_NAME":"LAGEOS 2","OBJECT_ID":"1992-070B","EPOCH":"2026-03-02T04:10:27.422400","MEAN_MOTION":6.47293311,"ECCENTRICITY":0.01377834,"INCLINATION":52.6801,"RA_OF_ASC_NODE":334.2909,"ARG_OF_PERICENTER":140.5395,"MEAN_ANOMALY":13.7441,"EPHEMERIS_TYPE":0,"CLASSIFICATION_TYPE":"U","NORAD_CAT_ID":22195,"ELEMENT_SET_NO":999,"REV_AT_EPOCH":78849,"BSTAR":0,"MEAN_MOTION_DOT":-9.0e-8,"MEAN_MOTION_DDOT":0},{"OBJECT_NAME":"STELLA","OBJECT_ID":"1993-061B","EPOCH":"2026-03-03T03:13:54.045120","MEAN_MOTION":14.27467234,"ECCENTRICITY":0.0006382,"INCLINATION":98.7855,"RA_OF_ASC_NODE":125.9481,"ARG_OF_PERICENTER":176.0816,"MEAN_ANOMALY":217.2299,"EPHEMERIS_TYPE":0,"CLASSIFICATION_TYPE":"U","NORAD_CAT_ID":22824,"ELEMENT_SET_NO":999,"REV_AT_EPOCH":68964,"BSTAR":4.7423e-6,"MEAN_MOTION_DOT":-3.3e-7,"MEAN_MOTION_DDOT":0},{"OBJECT_NAME":"LARETS","OBJECT_ID":"2003-042F","EPOCH":"2026-03-03T04:02:16.031904","MEAN_MOTION":14.6384644,"ECCENTRICITY":0.0012485,"INCLINATION":98.4003,"RA_OF_ASC_NODE":222.2213,"ARG_OF_PERICENTER":12.8402,"MEAN_ANOMALY":347.3115,"EPHEMERIS_TYPE":0,"CLASSIFICATION_TYPE":"U","NORAD_CAT_ID":27944,"ELEMENT_SET_NO":999,"REV_AT_EPOCH":19785,"BSTAR":2.6723e-5,"MEAN_MOTION_DOT":8.9e-7,"MEAN_MOTION_DDOT":0},{"OBJECT_NAME":"LARES","OBJECT_ID":"2012-006A","EPOCH":"2026-03-03T03:04:30.584928","MEAN_MOTION":12.54932157,"ECCENTRICITY":0.0007606,"INCLINATION":69.4884,"RA_OF_ASC_NODE":113.4077,"ARG_OF_PERICENTER":157.3554,"MEAN_ANOMALY":202.781,"EPHEMERIS_TYPE":0,"CLASSIFICATION_TYPE":"U","NORAD_CAT_ID":38077,"ELEMENT_SET_NO":999,"REV_AT_EPOCH":64376,"BSTAR":-1.3309e-5,"MEAN_MOTION_DOT":-4.1e-7,"MEAN_MOTION_DDOT":0},{"OBJECT_NAME":"LARES-2","OBJECT_ID":"2022-080A","EPOCH":"2026-02-20T17:16:46.407648","MEAN_MOTION":6.38965205,"ECCENTRICITY":0.00051588,"INCLINATION":70.178,"RA_OF_ASC_NODE":345.2672,"ARG_OF_PERICENTER":0.959,"MEAN_ANOMALY":359.1035,"EPHEMERIS_TYPE":0,"CLASSIFICATION_TYPE":"U","NORAD_CAT_ID":53105,"ELEMENT_SET_NO":999,"REV_AT_EPOCH":8422,"BSTAR":0,"MEAN_MOTION_DOT":-1.9e-7,"MEAN_MOTION_DDOT":0}]
